start=new Date('2021-11-21T00:00:00.000Z').valueOf();
sats=[{"TLE_LINE2":"2 47566  53.0550 210.9695 0001916  69.9564 290.1631 15.06389091 44390","EPOCH":"2021-11-20T09:19:16.687776","PERIAPSIS":"545.920","COUNTRY_CODE":"US","LAUNCH_DATE":"2021-02-04","MEAN_ANOMALY":"290.1631","REF_FRAME":"TEME","OBJECT_ID":"2021-009U","REV_AT_EPOCH":"4439","ECCENTRICITY":"0.00019160","NORAD_CAT_ID":"47566","TIME_SYSTEM":"UTC","RCS_SIZE":"LARGE","RA_OF_ASC_NODE":"210.9695","OBJECT_TYPE":"PAYLOAD","SITE":"AFETR","TLE_LINE1":"1 47566U 21009U   21324.38838759 -.00000475  00000-0 -13012-4 0  9992","BSTAR":"-0.00001301200000","MEAN_ELEMENT_THEORY":"SGP4","INCLINATION":"53.0550","APOAPSIS":"548.574","FILE":"3220049","ELEMENT_SET_NO":"999","CENTER_NAME":"EARTH","MEAN_MOTION_DDOT":"0.0000000000000","OBJECT_NAME":"STARLINK-1965","ARG_OF_PERICENTER":"69.9564","EPHEMERIS_TYPE":"0","MEAN_MOTION":"15.06389091","MEAN_MOTION_DOT":"-0.00000475","SEMIMAJOR_AXIS":"6925.382","DECAY_DATE":null,"GP_ID":"190142859","PERIOD":"95.593","CLASSIFICATION_TYPE":"U"},{"GP_ID":"190141108","DECAY_DATE":null,"CLASSIFICATION_TYPE":"U","PERIOD":"95.593","EPHEMERIS_TYPE":"0","ARG_OF_PERICENTER":"63.3053","OBJECT_NAME":"STARLINK-1966","SEMIMAJOR_AXIS":"6925.378","MEAN_MOTION_DOT":"-0.00000411","MEAN_MOTION":"15.06390488","ELEMENT_SET_NO":"999","CENTER_NAME":"EARTH","APOAPSIS":"548.536","FILE":"3220049","INCLINATION":"53.0546","MEAN_MOTION_DDOT":"0.0000000000000","BSTAR":"-0.00000865860000","TLE_LINE1":"1 47567U 21009V   21324.49158751 -.00000411  00000-0 -86586-5 0  9999","SITE":"AFETR","MEAN_ELEMENT_THEORY":"SGP4","RA_OF_ASC_NODE":"250.5153","RCS_SIZE":"LARGE","OBJECT_TYPE":"PAYLOAD","NORAD_CAT_ID":"47567","ECCENTRICITY":"0.00018670","TIME_SYSTEM":"UTC","REF_FRAME":"TEME","MEAN_ANOMALY":"296.8127","REV_AT_EPOCH":"4384","OBJECT_ID":"2021-009V","EPOCH":"2021-11-20T11:47:53.160864","TLE_LINE2":"2 47567  53.0546 250.5153 0001867  63.3053 296.8127 15.06390488 43845","LAUNCH_DATE":"2021-02-04","COUNTRY_CODE":"US","PERIAPSIS":"545.950"},{"PERIOD":"95.592","CLASSIFICATION_TYPE":"U","DECAY_DATE":null,"GP_ID":"190141358","MEAN_MOTION":"15.06398939","MEAN_MOTION_DOT":"0.00000419","SEMIMAJOR_AXIS":"6925.352","OBJECT_NAME":"STARLINK-1967","ARG_OF_PERICENTER":"70.8942","EPHEMERIS_TYPE":"0","MEAN_MOTION_DDOT":"0.0000000000000","INCLINATION":"53.0543","APOAPSIS":"548.444","FILE":"3220049","ELEMENT_SET_NO":"999","CENTER_NAME":"EARTH","MEAN_ELEMENT_THEORY":"SGP4","SITE":"AFETR","TLE_LINE1":"1 47568U 21009W   21324.31834450  .00000419  00000-0  47063-4 0  9990","BSTAR":"0.00004706300000","OBJECT_TYPE":"PAYLOAD","RCS_SIZE":"LARGE","RA_OF_ASC_NODE":"251.2941","TIME_SYSTEM":"UTC","ECCENTRICITY":"0.00017720","NORAD_CAT_ID":"47568","OBJECT_ID":"2021-009W","REV_AT_EPOCH":"4382","MEAN_ANOMALY":"289.2239","REF_FRAME":"TEME","PERIAPSIS":"545.990","COUNTRY_CODE":"US","LAUNCH_DATE":"2021-02-04","TLE_LINE2":"2 47568  53.0543 251.2941 0001772  70.8942 289.2239 15.06398939 43828","EPOCH":"2021-11-20T07:38:24.964800"},{"TIME_SYSTEM":"UTC","NORAD_CAT_ID":"47569","ECCENTRICITY":"0.00015090","OBJECT_TYPE":"PAYLOAD","RA_OF_ASC_NODE":"220.8769","RCS_SIZE":"LARGE","LAUNCH_DATE":"2021-02-04","PERIAPSIS":"437.865","COUNTRY_CODE":"US","EPOCH":"2021-11-20T17:51:52.690176","TLE_LINE2":"2 47569  53.0478 220.8769 0001509  90.3178 269.8000 15.42446296 44890","REV_AT_EPOCH":"4489","OBJECT_ID":"2021-009X","MEAN_ANOMALY":"269.8000","REF_FRAME":"TEME","MEAN_MOTION_DOT":"0.00845259","SEMIMAJOR_AXIS":"6817.029","MEAN_MOTION":"15.42446296","EPHEMERIS_TYPE":"0","OBJECT_NAME":"STARLINK-1968","ARG_OF_PERICENTER":"90.3178","CLASSIFICATION_TYPE":"U","PERIOD":"93.358","GP_ID":"190146433","DECAY_DATE":null,"MEAN_ELEMENT_THEORY":"SGP4","BSTAR":"0.01776200000000","SITE":"AFETR","TLE_LINE1":"1 47569U 21009X   21324.74435984  .00845259  00000-0  17762-1 0  9996","MEAN_MOTION_DDOT":"0.0000000000000","APOAPSIS":"439.923","FILE":"3220172","ELEMENT_SET_NO":"999","CENTER_NAME":"EARTH","INCLINATION":"53.0478"},{"TIME_SYSTEM":"UTC","NORAD_CAT_ID":"47570","ECCENTRICITY":"0.00019370","OBJECT_TYPE":"PAYLOAD","RA_OF_ASC_NODE":"211.9233","RCS_SIZE":"LARGE","LAUNCH_DATE":"2021-02-04","PERIAPSIS":"545.853","COUNTRY_CODE":"US","EPOCH":"2021-11-20T04:16:42.666240","TLE_LINE2":"2 47570  53.0535 211.9233 0001937  71.4507 288.6692 15.06406339 44366","REV_AT_EPOCH":"4436","OBJECT_ID":"2021-009Y","MEAN_ANOMALY":"288.6692","REF_FRAME":"TEME","MEAN_MOTION_DOT":"-0.00000590","SEMIMAJOR_AXIS":"6925.329","MEAN_MOTION":"15.06406339","EPHEMERIS_TYPE":"0","OBJECT_NAME":"STARLINK-1969","ARG_OF_PERICENTER":"71.4507","CLASSIFICATION_TYPE":"U","PERIOD":"95.592","GP_ID":"190142360","DECAY_DATE":null,"MEAN_ELEMENT_THEORY":"SGP4","BSTAR":"-0.00002067600000","SITE":"AFETR","TLE_LINE1":"1 47570U 21009Y   21324.17827160 -.00000590  00000-0 -20676-4 0  9990","MEAN_MOTION_DDOT":"0.0000000000000","APOAPSIS":"548.536","FILE":"3220049","ELEMENT_SET_NO":"999","CENTER_NAME":"EARTH","INCLINATION":"53.0535"},{"MEAN_MOTION_DDOT":"0.0000000000000","INCLINATION":"53.0559","APOAPSIS":"548.467","FILE":"3220172","CENTER_NAME":"EARTH","ELEMENT_SET_NO":"999","MEAN_ELEMENT_THEORY":"SGP4","SITE":"AFETR","TLE_LINE1":"1 47571U 21009Z   21324.65284985  .00000127  00000-0  27454-4 0  9991","BSTAR":"0.00002745400000","PERIOD":"95.593","CLASSIFICATION_TYPE":"U","DECAY_DATE":null,"GP_ID":"190146775","MEAN_MOTION":"15.06388809","MEAN_MOTION_DOT":"0.00000127","SEMIMAJOR_AXIS":"6925.383","OBJECT_NAME":"STARLINK-1970","ARG_OF_PERICENTER":"67.0030","EPHEMERIS_TYPE":"0","OBJECT_ID":"2021-009Z","REV_AT_EPOCH":"4489","MEAN_ANOMALY":"293.1144","REF_FRAME":"TEME","PERIAPSIS":"546.028","COUNTRY_CODE":"US","LAUNCH_DATE":"2021-02-04","TLE_LINE2":"2 47571  53.0559 219.7923 0001761  67.0030 293.1144 15.06388809 44894","EPOCH":"2021-11-20T15:40:06.227040","OBJECT_TYPE":"PAYLOAD","RCS_SIZE":"LARGE","RA_OF_ASC_NODE":"219.7923","TIME_SYSTEM":"UTC","ECCENTRICITY":"0.00017610","NORAD_CAT_ID":"47571"},{"GP_ID":"190141858","DECAY_DATE":null,"CLASSIFICATION_TYPE":"U","PERIOD":"95.593","EPHEMERIS_TYPE":"0","OBJECT_NAME":"STARLINK-1971","ARG_OF_PERICENTER":"68.6735","MEAN_MOTION_DOT":"-0.00000261","SEMIMAJOR_AXIS":"6925.369","MEAN_MOTION":"15.06393322","APOAPSIS":"548.523","FILE":"3220049","CENTER_NAME":"EARTH","ELEMENT_SET_NO":"999","INCLINATION":"53.0552","MEAN_MOTION_DDOT":"0.0000000000000","BSTAR":"0.00000139420000","SITE":"AFETR","TLE_LINE1":"1 47572U 21009AA  21324.43537947 -.00000261  00000-0  13942-5 0  9995","MEAN_ELEMENT_THEORY":"SGP4","RA_OF_ASC_NODE":"220.7497","RCS_SIZE":"LARGE","OBJECT_TYPE":"PAYLOAD","NORAD_CAT_ID":"47572","ECCENTRICITY":"0.00018610","TIME_SYSTEM":"UTC","MEAN_ANOMALY":"291.4452","REF_FRAME":"TEME","REV_AT_EPOCH":"4426","OBJECT_ID":"2021-009AA","EPOCH":"2021-11-20T10:26:56.786208","TLE_LINE2":"2 47572  53.0552 220.7497 0001861  68.6735 291.4452 15.06393322 44266","LAUNCH_DATE":"2021-02-04","PERIAPSIS":"545.945","COUNTRY_CODE":"US"},{"OBJECT_TYPE":"PAYLOAD","RA_OF_ASC_NODE":"219.6608","RCS_SIZE":"LARGE","TIME_SYSTEM":"UTC","NORAD_CAT_ID":"47573","ECCENTRICITY":"0.00016820","REV_AT_EPOCH":"4489","OBJECT_ID":"2021-009AB","MEAN_ANOMALY":"296.7135","REF_FRAME":"TEME","LAUNCH_DATE":"2021-02-04","PERIAPSIS":"546.081","COUNTRY_CODE":"US","EPOCH":"2021-11-20T16:17:15.506880","TLE_LINE2":"2 47573  53.0553 219.6608 0001682  63.4026 296.7135 15.06389526 44892","CLASSIFICATION_TYPE":"U","PERIOD":"95.593","GP_ID":"190146434","DECAY_DATE":null,"MEAN_MOTION_DOT":"0.00000116","SEMIMAJOR_AXIS":"6925.381","MEAN_MOTION":"15.06389526","EPHEMERIS_TYPE":"0","OBJECT_NAME":"STARLINK-1975","ARG_OF_PERICENTER":"63.4026","MEAN_MOTION_DDOT":"0.0000000000000","FILE":"3220172","APOAPSIS":"548.411","CENTER_NAME":"EARTH","ELEMENT_SET_NO":"999","INCLINATION":"53.0553","MEAN_ELEMENT_THEORY":"SGP4","BSTAR":"0.00002670400000","SITE":"AFETR","TLE_LINE1":"1 47573U 21009AB  21324.67865170  .00000116  00000-0  26704-4 0  9991"},{"OBJECT_TYPE":"PAYLOAD","RA_OF_ASC_NODE":"251.3806","RCS_SIZE":"LARGE","TIME_SYSTEM":"UTC","NORAD_CAT_ID":"47574","ECCENTRICITY":"0.00017740","REV_AT_EPOCH":"4381","OBJECT_ID":"2021-009AC","REF_FRAME":"TEME","MEAN_ANOMALY":"297.9123","LAUNCH_DATE":"2021-02-04","COUNTRY_CODE":"US","PERIAPSIS":"546.019","EPOCH":"2021-11-20T07:06:34.640064","TLE_LINE2":"2 47574  53.0556 251.3806 0001774  62.2046 297.9123 15.06388761 43811","CLASSIFICATION_TYPE":"U","PERIOD":"95.593","GP_ID":"190142860","DECAY_DATE":null,"SEMIMAJOR_AXIS":"6925.383","MEAN_MOTION_DOT":"0.00000158","MEAN_MOTION":"15.06388761","EPHEMERIS_TYPE":"0","ARG_OF_PERICENTER":"62.2046","OBJECT_NAME":"STARLINK-1976","MEAN_MOTION_DDOT":"0.0000000000000","ELEMENT_SET_NO":"999","CENTER_NAME":"EARTH","APOAPSIS":"548.477","FILE":"3220049","INCLINATION":"53.0556","MEAN_ELEMENT_THEORY":"SGP4","BSTAR":"0.00002952000000","TLE_LINE1":"1 47574U 21009AC  21324.29623426  .00000158  00000-0  29520-4 0  9991","SITE":"AFETR"},{"RA_OF_ASC_NODE":"251.4330","RCS_SIZE":"LARGE","OBJECT_TYPE":"PAYLOAD","NORAD_CAT_ID":"47575","ECCENTRICITY":"0.00018860","TIME_SYSTEM":"UTC","REF_FRAME":"TEME","MEAN_ANOMALY":"291.4663","REV_AT_EPOCH":"4381","OBJECT_ID":"2021-009AD","EPOCH":"2021-11-20T06:50:39.069888","TLE_LINE2":"2 47575  53.0546 251.4330 0001886  68.6527 291.4663 15.06391898 43815","LAUNCH_DATE":"2021-02-04","COUNTRY_CODE":"US","PERIAPSIS":"545.932","GP_ID":"190141109","DECAY_DATE":null,"CLASSIFICATION_TYPE":"U","PERIOD":"95.593","EPHEMERIS_TYPE":"0","ARG_OF_PERICENTER":"68.6527","OBJECT_NAME":"STARLINK-1977","SEMIMAJOR_AXIS":"6925.373","MEAN_MOTION_DOT":"0.00000550","MEAN_MOTION":"15.06391898","ELEMENT_SET_NO":"999","CENTER_NAME":"EARTH","APOAPSIS":"548.545","FILE":"3220049","INCLINATION":"53.0546","MEAN_MOTION_DDOT":"0.0000000000000","BSTAR":"0.00005584200000","TLE_LINE1":"1 47575U 21009AD  21324.28517442  .00000550  00000-0  55842-4 0  9993","SITE":"AFETR","MEAN_ELEMENT_THEORY":"SGP4"}];
